NORAD_CAT_ID,OBJECT_NAME,OBJECT_TYPE,EPOCH,MEAN_MOTION,ECCENTRICITY,INCLINATION,RA_OF_ASC_NODE,ARG_OF_PERICENTER,MEAN_ANOMALY,BSTAR,MEAN_MOTION_DOT,MEAN_MOTION_DDOT,TLE_LINE0,TLE_LINE1,TLE_LINE2,SEMIMAJOR_AXIS,PERIOD,APOGEE,PERIGEE,DECAYED
52846.0,STARLINK-4212,PAYLOAD,2024-05-23 21:01:23,15.08837735,0.0001536,53.2181,93.6963,94.7899,265.3268,3.0969e-05,2.05e-06,0.0,0 STARLINK-4212,1 52846U 22062S   24144.87596085  .00000205  00000-0  30969-4 0  9998,2 52846  53.2181  93.6963 0001536  94.7899 265.3268 15.08837735107427,6917.887,95.438,540.815,538.69,0.0
52846.0,STARLINK-4212,PAYLOAD,2024-05-24 01:47:32,15.08842723,0.0001531,53.2178,92.8061,97.952,262.1646,6.316e-05,7.17e-06,0.0,0 STARLINK-4212,1 52846U 22062S   24145.07467661  .00000717  00000-0  63160-4 0  9995,2 52846  53.2178  92.8061 0001531  97.9520 262.1646 15.08842723106960,6917.872,95.437,540.796,538.678,0.0
52846.0,STARLINK-4212,PAYLOAD,2024-05-24 20:52:10,15.08836875,0.0001527,53.2186,89.2464,91.4719,268.6448,3.9638e-05,3.43e-06,0.0,0 STARLINK-4212,1 52846U 22062S   24145.86956271  .00000343  00000-0  39638-4 0  9990,2 52846  53.2186  89.2464 0001527  91.4719 268.6448 15.08836875107086,6917.89,95.438,540.811,538.699,0.0
52846.0,STARLINK-4212,PAYLOAD,2024-05-25 01:38:19,15.08835626,0.0001498,53.2183,88.3531,94.935,265.1813,2.5399e-05,1.16e-06,0.0,0 STARLINK-4212,1 52846U 22062S   24146.06828391  .00000116  00000-0  25399-4 0  9991,2 52846  53.2183  88.3531 0001498  94.9350 265.1813 15.08835626107603,6917.894,95.438,540.795,538.722,0.0
52846.0,STARLINK-4212,PAYLOAD,2024-05-25 12:46:03,15.08815906,0.0001362,53.2176,86.2696,116.3886,243.7246,-0.00020795,-3.594e-05,0.0,0 STARLINK-4212,1 52846U 22062S   24146.53198214 -.00003594  00000-0 -20795-3 0  9996,2 52846  53.2176  86.2696 0001362 116.3886 243.7246 15.08815906107675,6917.954,95.439,540.761,538.877,0.0
52846.0,STARLINK-4212,PAYLOAD,2024-05-25 19:07:34,15.08842527,0.0001451,53.2179,85.0821,107.2178,252.8973,-0.00012088,-2.211e-05,0.0,0 STARLINK-4212,1 52846U 22062S   24146.79692804 -.00002211  00000-0 -12088-3 0  9999,2 52846  53.2179  85.0821 0001451 107.2178 252.8973 15.08842527107719,6917.873,95.437,540.741,538.734,0.0
52846.0,STARLINK-4212,PAYLOAD,2024-05-26 03:04:29,15.08840644,0.0001308,53.2175,83.593,85.042,275.0721,3.9006e-05,3.33e-06,0.0,0 STARLINK-4212,1 52846U 22062S   24147.12812442  .00000333  00000-0  39006-4 0  9990,2 52846  53.2175  83.5930 0001308  85.0420 275.0721 15.08840644107270,6917.878,95.438,540.648,538.839,0.0
52846.0,STARLINK-4212,PAYLOAD,2024-05-26 18:58:21,15.08835956,0.000135,53.2174,80.619,85.7882,274.3264,7.2181e-05,8.61e-06,0.0,0 STARLINK-4212,1 52846U 22062S   24147.79052723  .00000861  00000-0  72181-4 0  9998,2 52846  53.2174  80.6190 0001350  85.7882 274.3264 15.08835956107376,6917.893,95.438,540.692,538.824,0.0
52846.0,STARLINK-4212,PAYLOAD,2024-05-27 01:19:53,15.08843882,0.0001426,53.2179,79.4312,81.1093,279.0061,0.00013174,1.81e-05,0.0,0 STARLINK-4212,1 52846U 22062S   24148.05548101  .00001810  00000-0  13174-3 0  9999,2 52846  53.2179  79.4312 0001426  81.1093 279.0061 15.08843882107904,6917.869,95.437,540.72,538.747,0.0
52846.0,STARLINK-4212,PAYLOAD,2024-05-27 12:27:35,15.08839662,0.0001439,53.2181,77.3487,89.4345,270.6812,0.00011706,1.576e-05,0.0,0 STARLINK-4212,1 52846U 22062S   24148.51916359  .00001576  00000-0  11706-3 0  9992,2 52846  53.2181  77.3487 0001439  89.4345 270.6812 15.08839662107487,6917.881,95.438,540.742,538.751,0.0
52846.0,STARLINK-4212,PAYLOAD,2024-05-28 04:21:27,15.08841772,0.000136,53.2174,74.3745,83.2413,276.8734,6.5532e-05,7.55e-06,0.0,0 STARLINK-4212,1 52846U 22062S   24149.18156533  .00000755  00000-0  65532-4 0  9991,2 52846  53.2174  74.3745 0001360  83.2413 276.8734 15.08841772107581,6917.875,95.437,540.681,538.799,0.0
52846.0,STARLINK-4212,PAYLOAD,2024-05-29 04:12:14,15.08826568,0.0001487,53.2181,69.9084,86.7534,273.3628,0.00028862,4.307e-05,0.0,0 STARLINK-4212,1 52846U 22062S   24150.17516765  .00004307  00000-0  28862-3 0  9990,2 52846  53.2181  69.9084 0001487  86.7534 273.3628 15.08826568108229,6917.921,95.438,540.815,538.758,0.0
52846.0,STARLINK-4212,PAYLOAD,2024-05-29 21:41:28,15.08840862,0.0001572,53.2168,66.6402,107.7338,252.3825,9.363e-06,-1.39e-06,0.0,0 STARLINK-4212,1 52846U 22062S   24150.90380479 -.00000139  00000-0  93630-5 0  9999,2 52846  53.2168  66.6402 0001572 107.7338 252.3825 15.08840862108334,6917.878,95.438,540.83,538.655,0.0
52846.0,STARLINK-4212,PAYLOAD,2024-05-30 04:03:01,15.08843256,0.0001414,53.2179,65.452,96.1379,263.9775,2.8064e-05,1.59e-06,0.0,0 STARLINK-4212,1 52846U 22062S   24151.16876307  .00000159  00000-0  28064-4 0  9997,2 52846  53.2179  65.4520 0001414  96.1379 263.9775 15.08843256107886,6917.87,95.437,540.714,538.757,0.0
52846.0,STARLINK-4212,PAYLOAD,2024-05-31 00:43:01,15.08850751,0.0001462,53.2188,61.5865,105.6542,254.4612,-7.7427e-06,-4.11e-06,0.0,0 STARLINK-4212,1 52846U 22062S   24152.02987777 -.00000411  00000-0 -77427-5 0  9998,2 52846  53.2188  61.5865 0001462 105.6542 254.4612 15.08850751108509,6917.848,95.437,540.724,538.701,0.0
52846.0,STARLINK-4212,PAYLOAD,2024-05-31 21:23:02,15.08837634,0.000144,53.2184,57.7209,104.0581,256.0571,9.3298e-06,-1.39e-06,0.0,0 STARLINK-4212,1 52846U 22062S   24152.89100416 -.00000139  00000-0  93298-5 0  9990,2 52846  53.2184  57.7209 0001440 104.0581 256.0571 15.08837634108637,6917.888,95.438,540.749,538.756,0.0
52846.0,STARLINK-4212,PAYLOAD,2024-05-31 22:58:25,15.08837374,0.0001424,53.2187,57.4234,106.0754,254.0396,6.18e-06,-1.9e-06,0.0,0 STARLINK-4212,1 52846U 22062S   24152.95724431 -.00000190  00000-0  61800-5 0  9997,2 52846  53.2187  57.4234 0001424 106.0754 254.0396 15.08837374108152,6917.888,95.438,540.739,538.768,0.0
52846.0,STARLINK-4212,PAYLOAD,2024-06-01 10:06:07,15.08841122,0.0001059,53.2174,55.3451,90.0993,270.0121,-3.8839e-05,-9.06e-06,0.0,0 STARLINK-4212,1 52846U 22062S   24153.42092323 -.00000906  00000-0 -38839-4 0  9999,2 52846  53.2174  55.3451 0001059  90.0993 270.0121 15.08841122108225,6917.877,95.437,540.475,539.009,0.0
52846.0,STARLINK-4212,PAYLOAD,2024-06-01 21:13:50,15.08828271,0.0001428,53.2199,53.2634,95.2451,264.8704,-3.3565e-05,-8.22e-06,0.0,0 STARLINK-4212,1 52846U 22062S   24153.88461314 -.00000822  00000-0 -33565-4 0  9997,2 52846  53.2199  53.2634 0001428  95.2451 264.8704 15.08828271108787,6917.916,95.438,540.769,538.793,0.0
52846.0,STARLINK-4212,PAYLOAD,2024-06-02 09:56:55,15.08830827,0.0001246,53.2196,50.8876,96.5406,263.5728,1.2667e-06,-2.68e-06,0.0,0 STARLINK-4212,1 52846U 22062S   24154.41453331 -.00000268  00000-0  12667-5 0  9991,2 52846  53.2196  50.8876 0001246  96.5406 263.5728 15.08830827108374,6917.908,95.438,540.635,538.911,0.0
52846.0,STARLINK-4212,PAYLOAD,2024-06-02 16:18:27,15.08838113,0.0001037,53.2184,49.6962,87.122,272.9891,1.2873e-05,-8.3e-07,0.0,0 STARLINK-4212,1 52846U 22062S   24154.67948936 -.00000083  00000-0  12873-4 0  9992,2 52846  53.2184  49.6962 0001037  87.1220 272.9891 15.08838113108901,6917.886,95.438,540.469,539.034,0.0
52846.0,STARLINK-4212,PAYLOAD,2024-06-03 09:47:42,15.08839626,9.86e-05,53.2167,46.4238,83.0996,277.0108,2.9326e-05,1.79e-06,0.0,0 STARLINK-4212,1 52846U 22062S   24155.40812850  .00000179  00000-0  29326-4 0  9995,2 52846  53.2167  46.4238 0000986  83.0996 277.0108 15.08839626108525,6917.882,95.438,540.429,539.064,0.0
52846.0,STARLINK-4212,PAYLOAD,2024-06-04 09:38:29,15.08839623,0.0001099,53.2184,41.9594,70.6835,289.4276,6.0311e-05,6.72e-06,0.0,0 STARLINK-4212,1 52846U 22062S   24156.40173037  .00000672  00000-0  60311-4 0  9990,2 52846  53.2184  41.9594 0001099  70.6835 289.4276 15.08839623109160,6917.882,95.438,540.507,538.986,0.0
52846.0,STARLINK-4212,PAYLOAD,2024-06-04 22:21:34,15.08835101,5.56e-05,53.2185,39.5813,96.5359,263.5696,0.00014237,1.979e-05,0.0,0 STARLINK-4212,1 52846U 22062S   24156.93165049  .00001979  00000-0  14237-3 0  9998,2 52846  53.2185  39.5813 0000556  96.5359 263.5696 15.08835101108753,6917.895,95.438,540.145,539.376,0.0
52846.0,STARLINK-4212,PAYLOAD,2024-06-05 09:29:16,15.08843317,0.0001005,53.2173,37.5017,86.196,273.9147,-5.4211e-05,-1.15e-05,0.0,0 STARLINK-4212,1 52846U 22062S   24157.39533085 -.00001150  00000-0 -54211-4 0  9998,2 52846  53.2173  37.5017 0001005  86.1960 273.9147 15.08843317108829,6917.87,95.437,540.43,539.04,0.0
52846.0,STARLINK-4212,PAYLOAD,2024-06-05 15:50:49,15.08830626,7.77e-05,53.2186,36.3099,99.9025,260.2055,-4.1564e-05,-9.49e-06,0.0,0 STARLINK-4212,1 52846U 22062S   24157.66029800 -.00000949  00000-0 -41564-4 0  9995,2 52846  53.2186  36.3099 0000777  99.9025 260.2055 15.08830626109354,6917.909,95.438,540.312,539.237,0.0
52846.0,STARLINK-4212,PAYLOAD,2024-06-05 22:12:21,15.08839664,0.0001403,53.216,35.122,94.793,265.3222,2.8956e-05,1.73e-06,0.0,0 STARLINK-4212,1 52846U 22062S   24157.92525167  .00000173  00000-0  28956-4 0  9998,2 52846  53.2160  35.1220 0001403  94.7930 265.3222 15.08839664108907,6917.881,95.438,540.717,538.776,0.0
52846.0,STARLINK-4212,PAYLOAD,2024-06-06 09:20:03,15.08833092,9.28e-05,53.2186,33.0399,102.8696,257.24,0.00014615,2.039e-05,0.0,0 STARLINK-4212,1 52846U 22062S   24158.38893008  .00002039  00000-0  14615-3 0  9990,2 52846  53.2186  33.0399 0000928 102.8696 257.2400 15.08833092108974,6917.902,95.438,540.408,539.125,0.0
52846.0,STARLINK-4212,PAYLOAD,2024-06-07 15:32:23,15.08839297,0.0001421,53.2143,27.3907,95.0998,265.0156,5.228e-05,5.44e-06,0.0,0 STARLINK-4212,1 52846U 22062S   24159.64749278  .00000544  00000-0  52280-4 0  9999,2 52846  53.2143  27.3907 0001421  95.0998 265.0156 15.08839297109659,6917.883,95.438,540.731,538.765,0.0
52846.0,STARLINK-4212,PAYLOAD,2024-06-07 21:53:55,15.0884082,0.0001251,53.2183,26.2052,78.6211,281.4922,4.3442e-05,4.04e-06,0.0,0 STARLINK-4212,1 52846U 22062S   24159.91245302  .00000404  00000-0  43442-4 0  9993,2 52846  53.2183  26.2052 0001251  78.6211 281.4922 15.08840820109206,6917.878,95.438,540.608,538.877,0.0
